{
  "type": "FeatureCollection",
  "features": [
    {
      "type": "Feature",
      "properties": {
        "norad_id": 30571,
        "name": "FENGYUN 1C DEB",
        "group": "fengyun-1c-debris",
        "lat": -21.027330908114468,
        "lon": -169.41803796872426,
        "alt_km": 849.1048994515149,
        "timestamp": "2025-12-13T18:50:04.708293+00:00",
        "meta_object_name": "FENGYUN 1C DEB",
        "meta_object_id": "1999-025ALM",
        "meta_epoch": "2025-12-13T01:07:06.583008",
        "meta_mean_motion": 14.10695813,
        "meta_eccentricity": 0.00208118,
        "meta_inclination": 98.7313,
        "meta_ra_of_asc_node": 13.2516,
        "meta_arg_of_pericenter": 233.0481,
        "meta_mean_anomaly": 181.5205,
        "meta_ephemeris_type": 0,
        "meta_classification_type": "U",
        "meta_norad_cat_id": 30571,
        "meta_element_set_no": 999,
        "meta_rev_at_epoch": 96891,
        "meta_bstar": 0.00034704194,
        "meta_mean_motion_dot": 5.78e-06,
        "meta_mean_motion_ddot": 0,
        "tle_line1": "1 30571U 99025ALM 25347.04660397  .00000578  00000+0  34704-3 0  9997",
        "tle_line2": "2 30571  98.7313  13.2516 0020811 233.0481 181.5205 14.10695813968913"
      },
      "geometry": {
        "type": "Point",
        "coordinates": [
          -169.41803796872426,
          -21.027330908114468
        ]
      }
    },
    {
      "type": "Feature",
      "properties": {
        "norad_id": 30572,
        "name": "FENGYUN 1C DEB",
        "group": "fengyun-1c-debris",
        "lat": 75.93920869695518,
        "lon": -124.55830781871548,
        "alt_km": 870.9319868147022,
        "timestamp": "2025-12-13T18:50:04.708304+00:00",
        "meta_object_name": "FENGYUN 1C DEB",
        "meta_object_id": "1999-025ALN",
        "meta_epoch": "2025-12-13T08:14:01.807008",
        "meta_mean_motion": 14.08922304,
        "meta_eccentricity": 0.00211305,
        "meta_inclination": 98.7722,
        "meta_ra_of_asc_node": 16.95,
        "meta_arg_of_pericenter": 291.8434,
        "meta_mean_anomaly": 90.0137,
        "meta_ephemeris_type": 0,
        "meta_classification_type": "U",
        "meta_norad_cat_id": 30572,
        "meta_element_set_no": 999,
        "meta_rev_at_epoch": 96770,
        "meta_bstar": 0.00035142253,
        "meta_mean_motion_dot": 5.66e-06,
        "meta_mean_motion_ddot": 0,
        "tle_line1": "1 30572U 99025ALN 25347.34307647  .00000566  00000+0  35142-3 0  9991",
        "tle_line2": "2 30572  98.7722  16.9500 0021130 291.8434  90.0137 14.08922304967705"
      },
      "geometry": {
        "type": "Point",
        "coordinates": [
          -124.55830781871548,
          75.93920869695518
        ]
      }
    },
    {
      "type": "Feature",
      "properties": {
        "norad_id": 30573,
        "name": "FENGYUN 1C DEB",
        "group": "fengyun-1c-debris",
        "lat": 48.511210152704095,
        "lon": 14.96251304845002,
        "alt_km": 889.438400536992,
        "timestamp": "2025-12-13T18:50:04.708314+00:00",
        "meta_object_name": "FENGYUN 1C DEB",
        "meta_object_id": "1999-025ALP",
        "meta_epoch": "2025-12-13T01:45:09.576864",
        "meta_mean_motion": 14.13841276,
        "meta_eccentricity": 0.00883445,
        "meta_inclination": 99.2271,
        "meta_ra_of_asc_node": 24.8197,
        "meta_arg_of_pericenter": 272.8422,
        "meta_mean_anomaly": 115.2316,
        "meta_ephemeris_type": 0,
        "meta_classification_type": "U",
        "meta_norad_cat_id": 30573,
        "meta_element_set_no": 999,
        "meta_rev_at_epoch": 96202,
        "meta_bstar": 0.0024882862,
        "meta_mean_motion_dot": 4.847e-05,
        "meta_mean_motion_ddot": 0,
        "tle_line1": "1 30573U 99025ALP 25347.07302751  .00004847  00000+0  24883-2 0  9998",
        "tle_line2": "2 30573  99.2271  24.8197 0088344 272.8422 115.2316 14.13841276962020"
      },
      "geometry": {
        "type": "Point",
        "coordinates": [
          14.96251304845002,
          48.511210152704095
        ]
      }
    },
    {
      "type": "Feature",
      "properties": {
        "norad_id": 30574,
        "name": "FENGYUN 1C DEB",
        "group": "fengyun-1c-debris",
        "lat": -23.46342578922407,
        "lon": -32.72534609105743,
        "alt_km": 1101.977840733828,
        "timestamp": "2025-12-13T18:50:04.708325+00:00",
        "meta_object_name": "FENGYUN 1C DEB",
        "meta_object_id": "1999-025ALQ",
        "meta_epoch": "2025-12-11T10:03:26.289792",
        "meta_mean_motion": 13.77512791,
        "meta_eccentricity": 0.0219325,
        "meta_inclination": 99.302,
        "meta_ra_of_asc_node": 149.0367,
        "meta_arg_of_pericenter": 350.9796,
        "meta_mean_anomaly": 8.7444,
        "meta_ephemeris_type": 0,
        "meta_classification_type": "U",
        "meta_norad_cat_id": 30574,
        "meta_element_set_no": 999,
        "meta_rev_at_epoch": 93750,
        "meta_bstar": 0.0031904769,
        "meta_mean_motion_dot": 3.752e-05,
        "meta_mean_motion_ddot": 0,
        "tle_line1": "1 30574U 99025ALQ 25345.41905428  .00003752  00000+0  31905-2 0  9992",
        "tle_line2": "2 30574  99.3020 149.0367 0219325 350.9796   8.7444 13.77512791937509"
      },
      "geometry": {
        "type": "Point",
        "coordinates": [
          -32.72534609105743,
          -23.46342578922407
        ]
      }
    },
    {
      "type": "Feature",
      "properties": {
        "norad_id": 30575,
        "name": "FENGYUN 1C DEB",
        "group": "fengyun-1c-debris",
        "lat": -36.46402744557531,
        "lon": -108.07904163646799,
        "alt_km": 727.4690077792875,
        "timestamp": "2025-12-13T18:50:04.708335+00:00",
        "meta_object_name": "FENGYUN 1C DEB",
        "meta_object_id": "1999-025ALR",
        "meta_epoch": "2025-12-13T04:45:31.810176",
        "meta_mean_motion": 14.40068331,
        "meta_eccentricity": 0.00541621,
        "meta_inclination": 99.1694,
        "meta_ra_of_asc_node": 78.1487,
        "meta_arg_of_pericenter": 235.1999,
        "meta_mean_anomaly": 183.0873,
        "meta_ephemeris_type": 0,
        "meta_classification_type": "U",
        "meta_norad_cat_id": 30575,
        "meta_element_set_no": 999,
        "meta_rev_at_epoch": 98224,
        "meta_bstar": 0.0015867606,
        "meta_mean_motion_dot": 5.045e-05,
        "meta_mean_motion_ddot": 0,
        "tle_line1": "1 30575U 99025ALR 25347.19828484  .00005045  00000+0  15868-2 0  9993",
        "tle_line2": "2 30575  99.1694  78.1487 0054162 235.1999 183.0873 14.40068331982246"
      },
      "geometry": {
        "type": "Point",
        "coordinates": [
          -108.07904163646799,
          -36.46402744557531
        ]
      }
    },
    {
      "type": "Feature",
      "properties": {
        "norad_id": 30577,
        "name": "FENGYUN 1C DEB",
        "group": "fengyun-1c-debris",
        "lat": 19.83854325742871,
        "lon": -155.11627806094464,
        "alt_km": 865.5811327228839,
        "timestamp": "2025-12-13T18:50:04.708346+00:00",
        "meta_object_name": "FENGYUN 1C DEB",
        "meta_object_id": "1999-025ALT",
        "meta_epoch": "2025-12-12T20:48:47.342304",
        "meta_mean_motion": 14.11144371,
        "meta_eccentricity": 0.00286134,
        "meta_inclination": 98.7706,
        "meta_ra_of_asc_node": 20.7948,
        "meta_arg_of_pericenter": 281.8155,
        "meta_mean_anomaly": 259.5515,
        "meta_ephemeris_type": 0,
        "meta_classification_type": "U",
        "meta_norad_cat_id": 30577,
        "meta_element_set_no": 999,
        "meta_rev_at_epoch": 96786,
        "meta_bstar": 0.00071157992,
        "meta_mean_motion_dot": 1.243e-05,
        "meta_mean_motion_ddot": 0,
        "tle_line1": "1 30577U 99025ALT 25346.86721461  .00001243  00000+0  71158-3 0  9996",
        "tle_line2": "2 30577  98.7706  20.7948 0028613 281.8155 259.5515 14.11144371967866"
      },
      "geometry": {
        "type": "Point",
        "coordinates": [
          -155.11627806094464,
          19.83854325742871
        ]
      }
    },
    {
      "type": "Feature",
      "properties": {
        "norad_id": 30579,
        "name": "FENGYUN 1C DEB",
        "group": "fengyun-1c-debris",
        "lat": -16.87604022189299,
        "lon": 15.125110640426685,
        "alt_km": 898.3837139462739,
        "timestamp": "2025-12-13T18:50:04.708356+00:00",
        "meta_object_name": "FENGYUN 1C DEB",
        "meta_object_id": "1999-025ALV",
        "meta_epoch": "2025-12-12T19:48:51.566976",
        "meta_mean_motion": 14.05250205,
        "meta_eccentricity": 0.00536954,
        "meta_inclination": 98.807,
        "meta_ra_of_asc_node": 11.498,
        "meta_arg_of_pericenter": 103.3635,
        "meta_mean_anomaly": 70.5032,
        "meta_ephemeris_type": 0,
        "meta_classification_type": "U",
        "meta_norad_cat_id": 30579,
        "meta_element_set_no": 999,
        "meta_rev_at_epoch": 96458,
        "meta_bstar": 0.00062123576,
        "meta_mean_motion_dot": 9.75e-06,
        "meta_mean_motion_ddot": 0,
        "tle_line1": "1 30579U 99025ALV 25346.82559684  .00000975  00000+0  62124-3 0  9994",
        "tle_line2": "2 30579  98.8070  11.4980 0053695 103.3635  70.5032 14.05250205964583"
      },
      "geometry": {
        "type": "Point",
        "coordinates": [
          15.125110640426685,
          -16.87604022189299
        ]
      }
    }
  ]
}